IRIDIUM 106             
1 41917U 17003A   24205.38710706  .00000558  00000+0  19219-3 0  9990
2 41917  86.3970  18.4516 0002283  79.6819 280.4634 14.34220453393760
IRIDIUM 103             
1 41918U 17003B   24205.44419047  .00000599  00000+0  20690-3 0  9992
2 41918  86.3969  18.3293 0002297  96.1918 263.9539 14.34220259393808
IRIDIUM 109             
1 41919U 17003C   24205.45053340  .00000191  00000+0  61186-4 0  9998
2 41919  86.3974  18.3747 0002008 100.7820 259.3602 14.34218918393789
IRIDIUM 102             
1 41920U 17003D   24205.41881959  .00000596  00000+0  20589-3 0  9991
2 41920  86.3970  18.3262 0001919  90.8257 269.3159 14.34220419393846
IRIDIUM 105             
1 41921U 17003E   24204.97094567  .00000804  00000+0  28009-3 0  9990
2 41921  86.4001 346.9585 0002233  94.1242 266.0209 14.34228626395639
IRIDIUM 104             
1 41922U 17003F   24205.43150599  .00000067  00000+0  16709-4 0  9997
2 41922  86.3968  18.3526 0002100 102.1943 257.9488 14.34217367393835
IRIDIUM 114             
1 41923U 17003G   24205.43784793  .00000554  00000+0  19077-3 0  9998
2 41923  86.3972  18.3361 0002154  82.6557 277.4883 14.34217578393830
IRIDIUM 108             
1 41924U 17003H   24204.90799041  .00000049  00000+0  10409-4 0  9992
2 41924  86.3997 346.9070 0002206  88.2750 271.8699 14.34218313395596
